STARLINK-34576          
1 64701U 25142F   25192.58335648 -.00125038  00000+0 -92763-3 0  9993
2 64701  69.9970 214.1996 0003507 277.5276 334.7024 15.72954411  3020
STARLINK-34322          
1 64702U 25142G   25192.53846672 -.00381163  00000+0 -29010-2 0  9990
2 64702  69.9946 214.3254 0003942 282.9472  77.1285 15.73078597  3226
STARLINK-34470          
1 64703U 25142H   25192.53812637 -.00275944  00000+0 -20769-2 0  9996
2 64703  69.9940 214.3236 0004122 268.3754  91.6971 15.73047017  3016
STARLINK-34405          
1 64704U 25142J   25192.53778964 -.00274588  00000+0 -20690-2 0  9997
2 64704  69.9955 214.3228 0004398 275.2202  84.8494 15.73014777  3060
STARLINK-34406          
1 64705U 25142K   25192.53746202 -.00029281  00000+0 -21324-3 0  9992
2 64705  69.9960 214.3208 0003529 273.4144  86.6649 15.72988455  3171
STARLINK-34559          
1 64706U 25142L   25192.53711313 -.00124567  00000+0 -92270-3 0  9999
2 64706  69.9963 214.3192 0003734 276.6087  83.4685 15.72987911  3065
STARLINK-34316          
1 64707U 25142M   25192.53678186 -.00128143  00000+0 -95231-3 0  9994
2 64707  69.9955 214.3178 0004033 271.0458  89.0277 15.72919831  3228
STARLINK-34563          
1 64708U 25142N   25192.53643929 -.00082684  00000+0 -60903-3 0  9999
2 64708  69.9945 214.3166 0004290 281.5231  78.5484 15.72979626  2900
STARLINK-34499          
1 64709U 25142P   25192.58335648 -.00105394  00000+0 -78030-3 0  9995
2 64709  69.9977 214.1815 0003477 273.7425 353.8226 15.72940811  2917
STARLINK-34447          
1 64710U 25142Q   25192.58335648 -.00108479  00000+0 -80349-3 0  9990
2 64710  69.9976 214.1783 0003294 272.7560 356.7267 15.72941530  3230
STARLINK-34312          
1 64711U 25142R   25192.53542237  .00060317  00000+0  44011-3 0  9992
2 64711  69.9941 214.3133 0004151 275.6005  84.4718 15.72958295  3224
STARLINK-34515          
1 64712U 25142S   25192.58335648 -.00136280  00000+0 -10118-2 0  9999
2 64712  69.9974 214.1737 0003299 272.2123   1.0793 15.72972166  2911
STARLINK-34583          
1 64713U 25142T   25192.58335648 -.00091945  00000+0 -67968-3 0  9994
2 64713  69.9976 214.1715 0003307 273.7575   1.4762 15.72933622  2911
STARLINK-34574          
1 64714U 25142U   25192.53440446  .01832682  00000+0  12080-1 0  9996
2 64714  69.9957 214.3080 0002426 250.8319 109.2615 15.72254162  3067
STARLINK-34533          
1 64715U 25142V   25192.53406934  .00211661  00000+0  15114-2 0  9990
2 64715  69.9947 214.3081 0003219 276.7489  83.3342 15.72986949  2999
STARLINK-34548          
1 64716U 25142W   25192.53374200  .00108657  00000+0  78866-3 0  9995
2 64716  69.9961 214.3059 0004309 272.8407  87.2297 15.72908651  3019
STARLINK-34568          
1 64717U 25142X   25192.53340354  .00035408  00000+0  26044-3 0  9993
2 64717  69.9950 214.3051 0003699 265.3554  94.7221 15.72901741  3069
STARLINK-34546          
1 64718U 25142Y   25192.53304189  .00186062  00000+0  13298-2 0  9999
2 64718  69.9947 214.3034 0005202 232.6983 127.3741 15.73031776  3223
STARLINK-34577          
1 64719U 25142Z   25192.58335648 -.00215587  00000+0 -16135-2 0  9999
2 64719  69.9980 214.1555 0003813 273.0975  15.5402 15.73011904  3079
STARLINK-34572          
1 64720U 25142AA  25192.58335648 -.00140341  00000+0 -10429-2 0  9996
2 64720  69.9979 214.1585 0003664 273.2353  13.4974 15.72960738  3234
STARLINK-34558          
1 64721U 25142AB  25192.58335648 -.00113267  00000+0 -83941-3 0  9994
2 64721  69.9976 214.1528 0003578 272.8279  17.7444 15.72942135  3022
MTG-S1                  
1 64723U 25143A   25191.58711036 -.00000164  00000+0  00000+0 0  9996
2 64723   0.9746   4.1129 2546385 238.9004 336.0336  0.64169766    83
STARLINK-34393          
1 64724U 25144A   25192.58335648 -.01037788  00000+0 -47817-2 0  9994
2 64724  53.1534 227.1541 0000809  63.9808 198.5901 15.85370174  2713
STARLINK-34562          
1 64725U 25144B   25192.58335648 -.01039053  00000+0 -47803-2 0  9997
2 64725  53.1532 227.1507 0000791  64.6322 199.5112 15.85404392  2684
STARLINK-34557          
1 64726U 25144C   25192.58335648 -.01048605  00000+0 -48238-2 0  9994
2 64726  53.1532 227.1455 0000763  64.8935 201.7017 15.85430175  2709
STARLINK-34242          
1 64727U 25144D   25192.25002315 -.01126413  00000+0 -50119-2 0  9996
2 64727  53.1540 228.8220 0000897  87.8188  77.1926 15.86300023  2657
STARLINK-34239          
1 64728U 25144E   25192.25002315 -.01131894  00000+0 -50317-2 0  9996
2 64728  53.1538 228.8171 0000876  84.7316  82.3943 15.86332362  2654
STARLINK-34588          
1 64729U 25144F   25192.25002315 -.01138322  00000+0 -50565-2 0  9995
2 64729  53.1539 228.8126 0000881  84.8234  84.5537 15.86363475  2654
STARLINK-34606          
1 64730U 25144G   25192.58335648 -.01076213  00000+0 -49436-2 0  9996
2 64730  53.1529 227.1261 0000752  66.0104 209.8505 15.85528528  2706
STARLINK-34552          
1 64731U 25144H   25192.25002315 -.01177353  00000+0 -51280-2 0  9990
2 64731  53.1538 228.8025 0000920  81.3561  92.8076 15.86424184  2658
STARLINK-34596          
1 64732U 25144J   25192.25002315 -.01182195  00000+0 -51443-2 0  9992
2 64732  53.1537 228.7982 0000882  81.1079  95.2365 15.86453313  2652
STARLINK-34556          
1 64733U 25144K   25192.58335648 -.01099843  00000+0 -50484-2 0  9998
2 64733  53.1530 227.1117 0000697  84.5634 198.3273 15.85603241  2702
STARLINK-34591          
1 64734U 25144L   25192.58335648 -.01106400  00000+0 -50769-2 0  9993
2 64734  53.1533 227.1065 0000744  62.9874 222.3051 15.85625600  2689
STARLINK-34587          
1 64735U 25144M   25192.58335648 -.01115123  00000+0 -51164-2 0  9996
2 64735  53.1527 227.1014 0000699  70.7021 216.9593 15.85650058  2659
STARLINK-34130          
1 64736U 25144N   25192.25002315 -.01215110  00000+0 -52741-2 0  9992
2 64736  53.1535 228.7779 0000880  79.7431 106.1560 15.86572239  2659
STARLINK-34619          
1 64737U 25144P   25192.58335648 -.01152740  00000+0 -51901-2 0  9993
2 64737  53.1531 227.0919 0000698  79.5967 212.6339 15.85701537  2700
STARLINK-34597          
1 64738U 25144Q   25192.25002315 -.01231463  00000+0 -53370-2 0  9992
2 64738  53.1535 228.7687 0000855  97.0500  93.2846 15.86636688  2631
STARLINK-34471          
1 64739U 25144R   25192.58335648 -.01184097  00000+0 -53348-2 0  9992
2 64739  53.1531 227.0817 0000651  79.4304 217.6235 15.85753314  2645
STARLINK-34208          
1 64740U 25144S   25192.25002315 -.01247895  00000+0 -54007-2 0  9999
2 64740  53.1536 228.7592 0000846  97.8844  97.0571 15.86698744  2659
STARLINK-34205          
1 64741U 25144T   25192.25002315 -.01249173  00000+0 -53991-2 0  9992
2 64741  53.1535 228.7545 0000859  83.3671 113.7191 15.86727879  2655
STARLINK-34607          
1 64742U 25144U   25192.25002315 -.01261444  00000+0 -54501-2 0  9996
2 64742  53.1537 228.7498 0000853  83.3403 115.9897 15.86760856  2639
STARLINK-34236          
1 64743U 25144V   25192.25002315 -.01273767  00000+0 -55019-2 0  9993
2 64743  53.1536 228.7445 0000819  87.2837 114.5112 15.86792034  2657
STARLINK-34185          
1 64744U 25144W   25192.25002315 -.01285387  00000+0 -55484-2 0  9991
2 64744  53.1535 228.7404 0000896  96.6485 107.1969 15.86828728  2658
STARLINK-34581          
1 64745U 25144X   25192.25002315 -.01297967  00000+0 -56008-2 0  9992
2 64745  53.1535 228.7360 0000847  88.2424 117.7052 15.86862297  2655
STARLINK-34592          
1 64746U 25144Y   25192.25002315 -.01324716  00000+0 -57220-2 0  9993
2 64746  53.1537 228.7310 0000857  96.3590 112.1152 15.86897829  2657
STARLINK-34589          
1 64747U 25144Z   25192.25002315 -.01340212  00000+0 -57889-2 0  9994
2 64747  53.1535 228.7263 0000906 105.5160 105.2009 15.86929958  2657
STARLINK-34536          
1 64748U 25144AA  25192.25002315 -.01351252  00000+0 -58374-2 0  9991
2 64748  53.1533 228.7210 0000974 105.8591 107.3458 15.86949642  2657
STARLINK-34595          
1 64749U 25144AB  25192.25002315 -.01390406  00000+0 -60147-2 0  9997
2 64749  53.1535 228.7110 0000845  97.1897 120.8656 15.87007054  2651
STARLINK-34531          
1 64750U 25144AC  25192.25002315 -.01375670  00000+0 -59479-2 0  9991
2 64750  53.1535 228.7163 0000829  90.1939 125.2795 15.86986143  2650
PROGRESS-MS 31          
1 64751U 25146A   25191.80191858  .00007787  00000+0  14191-3 0  9996
2 64751  51.6351 190.0161 0002163   2.7467  55.3035 15.50474527   867
SHIYAN-28B 01           
1 64753U 25145A   25192.48397724  .00000704  00000+0  10555-3 0  9994
2 64753  11.0002  26.6675 0002822 151.3862 208.6521 14.29196662  1093
CZ-4C R/B               
1 64754U 25145B   25192.53909238  .00000860  00000+0  62139-4 0  9999
2 64754  10.9866  23.8923 0121651 104.4511 256.9250 14.56348678  1076
